[{"OBJECT_NAME":"STARLINK-5523","OBJECT_ID":"2023-064Y","EPOCH":"2026-03-09T13:01:56.648928","MEAN_MOTION":14.98324703,"ECCENTRICITY":0.0002926,"INCLINATION":70.0004,"RA_OF_ASC_NODE":124.9791,"ARG_OF_PERICENTER":262.4662,"MEAN_ANOMALY":97.6164,"EPHEMERIS_TYPE":0,"CLASSIFICATION_TYPE":"U","NORAD_CAT_ID":56470,"ELEMENT_SET_NO":999,"REV_AT_EPOCH":15571,"BSTAR":-4.776753e-5,"MEAN_MOTION_DOT":-6.63e-6,"MEAN_MOTION_DDOT":0},{"OBJECT_NAME":"PEGASUS DEB","OBJECT_ID":"1994-029AEU","EPOCH":"2026-02-23T03:26:51.278784","MEAN_MOTION":14.47195941,"ECCENTRICITY":0.02323685,"INCLINATION":81.7405,"RA_OF_ASC_NODE":6.5005,"ARG_OF_PERICENTER":184.7349,"MEAN_ANOMALY":175.1651,"EPHEMERIS_TYPE":0,"CLASSIFICATION_TYPE":"U","NORAD_CAT_ID":39309,"ELEMENT_SET_NO":999,"REV_AT_EPOCH":72117,"BSTAR":0.00045281266,"MEAN_MOTION_DOT":2.342e-5,"MEAN_MOTION_DDOT":0}]
